NORAD_CAT_ID,OBJECT_NAME,OBJECT_TYPE,EPOCH,MEAN_MOTION,ECCENTRICITY,INCLINATION,RA_OF_ASC_NODE,ARG_OF_PERICENTER,MEAN_ANOMALY,BSTAR,MEAN_MOTION_DOT,MEAN_MOTION_DDOT,TLE_LINE0,TLE_LINE1,TLE_LINE2,SEMIMAJOR_AXIS,PERIOD,APOGEE,PERIGEE,DECAYED
53838.0,STARLINK-4773,PAYLOAD,2023-01-04 12:34:31,15.08842833,0.0002023,53.2178,102.4687,45.023,315.0926,5.473600000000001e-05,5.83e-06,0.0,0 STARLINK-4773,1 53838U 22114W   23004.52397806  .00000583  00000-0  54736-4 0  9991,2 53838  53.2178 102.4687 0002023  45.0230 315.0926 15.08842833 17280,6917.871999999999,95.437,541.136,538.337,0.0
53838.0,STARLINK-4773,PAYLOAD,2023-01-04 14:09:54,15.08852484,0.0001885,53.2173,102.1731,44.6872,315.4272,0.00017398,2.483e-05,0.0,0 STARLINK-4773,1 53838U 22114W   23004.59020850  .00002483  00000-0  17398-3 0  9993,2 53838  53.2173 102.1731 0001885  44.6872 315.4272 15.08852484 17296,6917.842,95.437,541.011,538.403,0.0
53838.0,STARLINK-4773,PAYLOAD,2023-01-05 12:25:17,15.08852286,0.0001956999999999,53.2168,98.0094,47.4489,312.6668,0.0001747,2.494e-05,0.0,0 STARLINK-4773,1 53838U 22114W   23005.51756186  .00002494  00000-0  17470-3 0  9997,2 53838  53.2168  98.0094 0001957  47.4489 312.6668 15.08852286 17973,6917.843000000003,95.437,541.062,538.354,0.0
53838.0,STARLINK-4773,PAYLOAD,2023-01-05 15:36:03,15.08855015,0.000192,53.2168,97.4143,49.0845,311.0314,0.00016169,2.287e-05,0.0,0 STARLINK-4773,1 53838U 22114W   23005.65003908  .00002287  00000-0  16169-3 0  9993,2 53838  53.2168  97.4143 0001920  49.0845 311.0314 15.08855015 17991,6917.834,95.437,541.028,538.371,0.0
53838.0,STARLINK-4773,PAYLOAD,2023-01-06 05:54:32,15.08847913,0.0002139,53.2167,94.7386,51.3952,308.7231,-9.6741e-05,-1.828e-05,0.0,0 STARLINK-4773,1 53838U 22114W   23006.24621138 -.00001828  00000-0 -96741-4 0  9997,2 53838  53.2167  94.7386 0002139  51.3952 308.7231 15.08847913 17547,6917.856,95.437,541.201,538.241,0.0
53838.0,STARLINK-4773,PAYLOAD,2023-01-06 12:16:06,15.08830702,0.0002045,53.217,93.5468,51.3956,308.7219,-0.00022781,-3.911e-05,0.0,0 STARLINK-4773,1 53838U 22114W   23006.51118705 -.00003911  00000-0 -22781-3 0  9995,2 53838  53.2170  93.5468 0002045  51.3956 308.7219 15.08830702 17587,6917.9090000000015,95.438,541.189,538.359,0.0
53838.0,STARLINK-4773,PAYLOAD,2023-01-07 08:56:07,15.08832582,0.0001996,53.218,89.6827,38.5791,321.5343,-0.00014444,-2.586e-05,0.0,0 STARLINK-4773,1 53838U 22114W   23007.37230678 -.00002586  00000-0 -14444-3 0  9998,2 53838  53.2180  89.6827 0001996  38.5791 321.5343 15.08832582 17715,6917.903,95.438,541.149,538.387,0.0
53838.0,STARLINK-4773,PAYLOAD,2023-01-07 15:17:39,15.08836973,0.0002088,53.218,88.4931,38.706,321.4081,-0.00012942,-2.347e-05,0.0,0 STARLINK-4773,1 53838U 22114W   23007.63726470 -.00002347  00000-0 -12942-3 0  9993,2 53838  53.2180  88.4931 0002088  38.7060 321.4081 15.08836973 18292,6917.89,95.438,541.1990000000002,538.31,0.0
53838.0,STARLINK-4773,PAYLOAD,2023-01-08 05:36:09,15.08814031,0.0001764,53.2178,85.8156,43.8744,316.2388,6.5995e-05,7.62e-06,0.0,0 STARLINK-4773,1 53838U 22114W   23008.23343786  .00000762  00000-0  65995-4 0  9999,2 53838  53.2178  85.8156 0001764  43.8744 316.2388 15.08814031 17848,6917.96,95.439,541.045,538.604,0.0
53838.0,STARLINK-4773,PAYLOAD,2023-01-08 11:57:41,15.08825323,0.0002035,53.2165,84.6288,41.4615,318.6531,0.00013304,1.829e-05,0.0,0 STARLINK-4773,1 53838U 22114W   23008.49839307  .00001829  00000-0  13304-3 0  9997,2 53838  53.2165  84.6288 0002035  41.4615 318.6531 15.08825323 17886,6917.925,95.438,541.198,538.382,0.0
53838.0,STARLINK-4773,PAYLOAD,2023-01-08 21:29:59,15.08830391,0.0002129,53.2173,82.8428,43.6592,316.4568,0.00029964,4.483e-05,0.0,0 STARLINK-4773,1 53838U 22114W   23008.89583065  .00004483  00000-0  29964-3 0  9996,2 53838  53.2173  82.8428 0002129  43.6592 316.4568 15.08830391 18487,6917.91,95.438,541.248,538.302,0.0
53838.0,STARLINK-4773,PAYLOAD,2023-01-09 11:48:27,15.08848164,0.0002112,53.2172,80.1666,45.383,314.7334,0.00012173,1.65e-05,0.0,0 STARLINK-4773,1 53838U 22114W   23009.49198530  .00001650  00000-0  12173-3 0  9999,2 53838  53.2172  80.1666 0002112  45.3830 314.7334 15.08848164 18576,6917.855,95.437,541.181,538.259,0.0
53838.0,STARLINK-4773,PAYLOAD,2023-01-09 14:59:13,15.08855014,0.0001976,53.216,79.5739,46.9524,313.1634,-1.4991e-05,-5.27e-06,0.0,0 STARLINK-4773,1 53838U 22114W   23009.62446475 -.00000527  00000-0 -14991-4 0  9993,2 53838  53.2160  79.5739 0001976  46.9524 313.1634 15.08855014 18051,6917.834,95.437,541.066,538.3330000000002,0.0
53838.0,STARLINK-4773,PAYLOAD,2023-01-09 21:20:46,15.08842252,0.0002123,53.2181,78.3832,42.9088,317.207,0.00019425,2.805e-05,0.0,0 STARLINK-4773,1 53838U 22114W   23009.88942688  .00002805  00000-0  19425-3 0  9993,2 53838  53.2181  78.3832 0002123  42.9088 317.2070 15.08842252 18634,6917.874,95.437,541.207,538.27,0.0
53838.0,STARLINK-4773,PAYLOAD,2023-01-10 08:28:29,15.0883682,0.000202,53.2182,76.301,39.7367,320.3773,1.8539e-05,7e-08,0.0,0 STARLINK-4773,1 53838U 22114W   23010.35311695  .00000007  00000-0  18539-4 0  9993,2 53838  53.2182  76.3010 0002020  39.7367 320.3773 15.08836820 18168,6917.89,95.438,541.153,538.3580000000002,0.0
53838.0,STARLINK-4773,PAYLOAD,2023-01-10 13:14:38,15.08837743,0.0002052,53.2176,75.4067,49.6141,310.503,0.00011001,1.463e-05,0.0,0 STARLINK-4773,1 53838U 22114W   23010.55183343  .00001463  00000-0  11001-3 0  9995,2 53838  53.2176  75.4067 0002052  49.6141 310.5030 15.08837743 18733,6917.887,95.438,541.172,538.3330000000002,0.0
53838.0,STARLINK-4773,PAYLOAD,2023-01-10 14:50:01,15.08842694,0.0002057,53.2178,75.1113,44.5429,315.5729,6.9415e-05,8.17e-06,0.0,0 STARLINK-4773,1 53838U 22114W   23010.61807298  .00000817  00000-0  69415-4 0  9999,2 53838  53.2178  75.1113 0002057  44.5429 315.5729 15.08842694 18744,6917.871999999999,95.437,541.16,538.314,0.0
53838.0,STARLINK-4773,PAYLOAD,2023-01-10 22:46:56,15.08852011,0.0001937,53.2176,73.6249,41.0423,319.0715,4.1777e-05,3.77e-06,0.0,0 STARLINK-4773,1 53838U 22114W   23010.94926489  .00000377  00000-0  41777-4 0  9991,2 53838  53.2176  73.6249 0001937  41.0423 319.0715 15.08852011 18251,6917.844,95.437,541.049,538.369,0.0
53838.0,STARLINK-4773,PAYLOAD,2023-01-11 13:05:23,15.08866291,0.0002055,53.2176,70.9493,41.9134,318.2016,0.00019307,2.788e-05,0.0,0 STARLINK-4773,1 53838U 22114W   23011.54540722  .00002788  00000-0  19307-3 0  9991,2 53838  53.2176  70.9493 0002055  41.9134 318.2016 15.08866291 18342,6917.8,95.436,541.087,538.243,0.0
53838.0,STARLINK-4773,PAYLOAD,2023-01-11 21:02:20,15.08836832,0.0002053,53.2178,69.4652,47.8533,312.2633,-3.2751e-05,-8.09e-06,0.0,0 STARLINK-4773,1 53838U 22114W   23011.87663051 -.00000809  00000-0 -32751-4 0  9991,2 53838  53.2178  69.4652 0002053  47.8533 312.2633 15.08836832 18932,6917.89,95.438,541.175,538.335,0.0
53838.0,STARLINK-4773,PAYLOAD,2023-01-11 22:37:44,15.08835991,0.0002103,53.2169,69.1653,48.5371,311.5801,-6.3729e-05,-1.302e-05,0.0,0 STARLINK-4773,1 53838U 22114W   23011.94287179 -.00001302  00000-0 -63729-4 0  9990,2 53838  53.2169  69.1653 0002103  48.5371 311.5801 15.08835991 18400,6917.893,95.438,541.212,538.303,0.0
53838.0,STARLINK-4773,PAYLOAD,2023-01-12 09:45:27,15.08819846,0.000181,53.2172,67.0818,49.6526,310.4624,-6.131e-05,-1.263e-05,0.0,0 STARLINK-4773,1 53838U 22114W   23012.40656526 -.00001263  00000-0 -61310-4 0  9998,2 53838  53.2172  67.0818 0001810  49.6526 310.4624 15.08819846 18471,6917.941999999999,95.439,541.059,538.555,0.0
53838.0,STARLINK-4773,PAYLOAD,2023-01-12 20:53:08,15.08835455,0.0001862,53.2172,65.0012,49.3294,310.786,2.1856e-06,-2.53e-06,0.0,0 STARLINK-4773,1 53838U 22114W   23012.87023807 -.00000253  00000-0  21856-5 0  9998,2 53838  53.2172  65.0012 0001862  49.3294 310.7860 15.08835455 19088,6917.894,95.438,541.047,538.471,0.0
53838.0,STARLINK-4773,PAYLOAD,2023-01-13 00:03:54,15.08829258,0.0001865,53.2163,64.4067,52.3537,307.7624,-7.0331e-05,-1.407e-05,0.0,0 STARLINK-4773,1 53838U 22114W   23013.00271885 -.00001407  00000-0 -70331-4 0  9999,2 53838  53.2163  64.4067 0001865  52.3537 307.7624 15.08829258 18568,6917.913000000001,95.438,541.068,538.488,0.0
53838.0,STARLINK-4773,PAYLOAD,2023-01-13 09:36:13,15.0884141,0.000184,53.2163,62.6208,60.144,299.9735,0.00014322,1.992e-05,0.0,0 STARLINK-4773,1 53838U 22114W   23013.40015598  .00001992  00000-0  14322-3 0  9994,2 53838  53.2163  62.6208 0001840  60.1440 299.9735 15.08841410 18624,6917.876,95.437,541.014,538.4680000000001,0.0
53838.0,STARLINK-4773,PAYLOAD,2023-01-13 20:43:55,15.08842095,0.0001821999999999,53.2163,60.54,57.52,302.5968,0.00039266,5.967e-05,0.0,0 STARLINK-4773,1 53838U 22114W   23013.86384032  .00005967  00000-0  39266-3 0  9996,2 53838  53.2163  60.5400 0001822  57.5200 302.5968 15.08842095 19236,6917.874,95.437,540.999,538.479,0.0
53838.0,STARLINK-4773,PAYLOAD,2023-01-14 06:16:15,15.08836244,0.0001685,53.2162,58.7561,68.2291,291.888,0.00037052,5.613e-05,0.0,0 STARLINK-4773,1 53838U 22114W   23014.26128544  .00005613  00000-0  37052-3 0  9994,2 53838  53.2162  58.7561 0001685  68.2291 291.8880 15.08836244 18756,6917.892,95.438,540.923,538.591,0.0
53838.0,STARLINK-4773,PAYLOAD,2023-01-14 12:37:47,15.08851876,0.0001712,53.2162,57.5654,71.7944,288.3235,0.00053918,8.306e-05,0.0,0 STARLINK-4773,1 53838U 22114W   23014.52623990  .00008306  00000-0  53918-3 0  9999,2 53838  53.2162  57.5654 0001712  71.7944 288.3235 15.08851876 18798,6917.844,95.437,540.893,538.525,0.0
53838.0,STARLINK-4773,PAYLOAD,2023-01-15 04:31:39,15.08836411,0.0001692,53.2169,54.5947,70.7362,289.3813,7.9845e-05,9.83e-06,0.0,0 STARLINK-4773,1 53838U 22114W   23015.18864721  .00000983  00000-0  79845-4 0  9992,2 53838  53.2169  54.5947 0001692  70.7362 289.3813 15.08836411 18899,6917.891,95.438,540.927,538.586,0.0
